ONEWEB-0113             
1 48050U 21025J   21108.16668981 -.00952161  00000-0 -27364-1 0  9993
2 48050  87.3976 341.6028 0009323 154.1424 286.7167 15.38534407  4978
ONEWEB-0112             
1 48051U 21025K   21108.16668981 -.00042340  00000-0 -10410-2 0  9998
2 48051  87.3949 341.5966 0006127 160.8191 343.3515 15.40847516  4960
ONEWEB-0156             
1 48052U 21025L   21108.16668981 -.00966163  00000-0 -30886-1 0  9995
2 48052  87.3992 341.6169 0009763 178.3848 175.1013 15.35280103  4957
ONEWEB-0161             
1 48053U 21025M   21107.91667824 -.00987470  00000-0 -35672-1 0  9995
2 48053  87.3967 341.7306 0007571 165.7931 119.5412 15.31064001  1766
ONEWEB-0158             
1 48054U 21025N   21108.16668981 -.00007078  00000-0 -17158-3 0  9997
2 48054  87.3934 341.5891 0006988 169.6917   9.4030 15.41300583  4963
ONEWEB-0157             
1 48055U 21025P   21108.16668981 -.00951715  00000-0 -26907-1 0  9994
2 48055  87.3965 341.6036 0008908 152.4696 299.3788 15.39038960  4973
ONEWEB-0162             
1 48056U 21025Q   21107.91667824 -.00957469  00000-0 -35575-1 0  9995
2 48056  87.3957 341.7188 0007748 161.5603 108.3099 15.30518525  1763
ONEWEB-0155             
1 48057U 21025R   21108.16668981 -.00006261  00000-0 -14949-3 0  9998
2 48057  87.3952 341.5893 0009849 170.6099  52.4995 15.41755028  4988
ONEWEB-0149             
1 48058U 21025S   21108.16668981 -.00973278  00000-0 -32808-1 0  9992
2 48058  87.3991 341.6197 0008099 183.0045 126.9321 15.33662354  4952
ONEWEB-0148             
1 48059U 21025T   21108.16668981 -.00959514  00000-0 -29120-1 0  9993
2 48059  87.3950 341.6007 0010268 167.0017 228.6733 15.36866055  4987
ONEWEB-0160             
1 48060U 21025U   21107.91667824 -.00977111  00000-0 -34103-1 0  9992
2 48060  87.3981 341.7180 0006564 169.7163 153.6927 15.32593490  1795
ONEWEB-0163             
1 48061U 21025V   21108.16668981 -.00002368  00000-0 -56930-4 0  9994
2 48061  87.3928 341.5755 0010389 169.1346  66.1573 15.41903234  4980
ONEWEB-0159             
1 48062U 21025W   21107.91667824 -.00985774  00000-0 -26569-1 0  9995
2 48062  87.3959 341.6921 0007574 151.1057  18.7950 15.40602725  1825
ONEWEB-0164             
1 48063U 21025X   21107.91667824 -.00988859  00000-0 -30026-1 0  9996
2 48063  87.4001 341.7031 0010322 169.9493 273.4883 15.36934079  1789
ONEWEB-0167             
1 48064U 21025Y   21107.91667824 -.00980285  00000-0 -33187-1 0  9993
2 48064  87.3965 341.7109 0007203 186.3526 163.6118 15.33559487  1782
ONEWEB-0166             
1 48065U 21025Z   21108.16668981 -.00001934  00000-0 -46527-4 0  9997
2 48065  87.3945 341.5823 0010817 168.1076  76.5508 15.42011808  4985
ONEWEB-0151             
1 48066U 21025AA  21108.16668981 -.00699675  00000-0 -18356-1 0  9999
2 48066  87.3965 341.6033 0006847 154.5365 342.8774 15.40971310  4974
ONEWEB-0170             
1 48067U 21025AB  21107.91667824 -.00986368  00000-0 -30536-1 0  9999
2 48067  87.3969 341.6975 0010247 174.6873 253.0488 15.36329249  1784
ONEWEB-0168             
1 48068U 21025AC  21108.16668981 -.01001836  00000-0 -35523-1 0  9993
2 48068  87.3970 341.6248 0006913 174.9261  86.3017 15.31705656  4939
ONEWEB-0173             
1 48069U 21025AD  21108.16668981 -.00013065  00000-0 -32060-3 0  9995
2 48069  87.3930 341.5918 0006428 158.4384 348.5683 15.40865508  4972
ONEWEB-0171             
1 48070U 21025AE  21108.16668981 -.00006965  00000-0 -16680-3 0  9998
2 48070  87.3935 341.5824 0009441 171.9069  42.0208 15.41647732  4981
ONEWEB-0172             
1 48071U 21025AF  21108.16668981 -.00938854  00000-0 -25198-1 0  9992
2 48071  87.3924 341.5890 0007285 152.0689 333.2271 15.40602072  4976
ONEWEB-0174             
1 48072U 21025AG  21108.16668981  .00000624  00000-0  13143-4 0  9996
2 48072  87.3942 341.5715 0012064 149.3338 162.4481 15.42792631  4994
ONEWEB-0175             
1 48073U 21025AH  21107.91667824 -.00976782  00000-0 -33614-1 0  9995
2 48073  87.4022 341.7225 0007465 181.7787 157.4940 15.33028169  1764
ONEWEB-0177             
1 48074U 21025AJ  21108.16668981  .00000622  00000-0  13153-4 0  9997
2 48074  87.3921 341.5652 0011980 151.6403 150.8480 15.42686370  4989
ONEWEB-0178             
1 48075U 21025AK  21108.16668981 -.00000205  00000-0 -58723-5 0  9990
2 48075  87.3935 341.5736 0012210 155.5443 121.8406 15.42360501  4994
ONEWEB-0108             
1 48076U 21025AL  21108.16668981 -.00003862  00000-0 -90124-4 0  9993
2 48076  87.3963 341.5798 0011948 154.2627 137.4559 15.42557112  4988
ONEWEB-0169             
1 48077U 21025AM  21108.16668981 -.00949042  00000-0 -28268-1 0  9990
2 48077  87.3992 341.6080 0010275 164.1372 242.9703 15.37413009  4911
